[
  {
    "OBJECT_NAME": "STARLINK-30535",
    "OBJECT_ID": "2023-153L",
    "EPOCH": "2023-10-22T14:00:01.000224",
    "MEAN_MOTION": 15.73949319,
    "ECCENTRICITY": 0.0001276,
    "INCLINATION": 42.9998,
    "RA_OF_ASC_NODE": 127.9219,
    "ARG_OF_PERICENTER": 257.0091,
    "MEAN_ANOMALY": 139.0204,
    "EPHEMERIS_TYPE": 0,
    "CLASSIFICATION_TYPE": "U",
    "NORAD_CAT_ID": 58001,
    "ELEMENT_SET_NO": 999,
    "REV_AT_EPOCH": 397,
    "BSTAR": -0.001456,
    "MEAN_MOTION_DOT": -0.00208566,
    "MEAN_MOTION_DDOT": 0
  },
  {
    "OBJECT_NAME": "STARLINK-30540",
    "OBJECT_ID": "2023-153M",
    "EPOCH": "2023-10-22T14:00:01.000224",
    "MEAN_MOTION": 15.73808244,
    "ECCENTRICITY": 0.0001863,
    "INCLINATION": 43,
    "RA_OF_ASC_NODE": 127.9189,
    "ARG_OF_PERICENTER": 246.7635,
    "MEAN_ANOMALY": 150.5782,
    "EPHEMERIS_TYPE": 0,
    "CLASSIFICATION_TYPE": "U",
    "NORAD_CAT_ID": 58002,
    "ELEMENT_SET_NO": 999,
    "REV_AT_EPOCH": 387,
    "BSTAR": -1.9135e-7,
    "MEAN_MOTION_DOT": -4.97e-6,
    "MEAN_MOTION_DDOT": 0
  },
  {
    "OBJECT_NAME": "STARLINK-30546",
    "OBJECT_ID": "2023-153N",
    "EPOCH": "2023-10-22T14:00:01.000224",
    "MEAN_MOTION": 15.7380977,
    "ECCENTRICITY": 0.0001721,
    "INCLINATION": 42.9999,
    "RA_OF_ASC_NODE": 127.9205,
    "ARG_OF_PERICENTER": 238.9339,
    "MEAN_ANOMALY": 157.7729,
    "EPHEMERIS_TYPE": 0,
    "CLASSIFICATION_TYPE": "U",
    "NORAD_CAT_ID": 58003,
    "ELEMENT_SET_NO": 999,
    "REV_AT_EPOCH": 397,
    "BSTAR": 0.00013363,
    "MEAN_MOTION_DOT": 0.00019035,
    "MEAN_MOTION_DDOT": 0
  },
  {
    "OBJECT_NAME": "STARLINK-30539",
    "OBJECT_ID": "2023-153P",
    "EPOCH": "2023-10-22T14:00:01.000224",
    "MEAN_MOTION": 15.7379543,
    "ECCENTRICITY": 0.0001303,
    "INCLINATION": 43,
    "RA_OF_ASC_NODE": 127.9174,
    "ARG_OF_PERICENTER": 261.9412,
    "MEAN_ANOMALY": 136.0056,
    "EPHEMERIS_TYPE": 0,
    "CLASSIFICATION_TYPE": "U",
    "NORAD_CAT_ID": 58004,
    "ELEMENT_SET_NO": 999,
    "REV_AT_EPOCH": 397,
    "BSTAR": 0.00034656,
    "MEAN_MOTION_DOT": 0.00050268,
    "MEAN_MOTION_DDOT": 0
  },
  {
    "OBJECT_NAME": "STARLINK-30530",
    "OBJECT_ID": "2023-153Q",
    "EPOCH": "2023-10-22T14:00:01.000224",
    "MEAN_MOTION": 15.73815186,
    "ECCENTRICITY": 0.000135,
    "INCLINATION": 43.0002,
    "RA_OF_ASC_NODE": 127.9145,
    "ARG_OF_PERICENTER": 229.2841,
    "MEAN_ANOMALY": 169.9022,
    "EPHEMERIS_TYPE": 0,
    "CLASSIFICATION_TYPE": "U",
    "NORAD_CAT_ID": 58005,
    "ELEMENT_SET_NO": 999,
    "REV_AT_EPOCH": 397,
    "BSTAR": 2.0437e-5,
    "MEAN_MOTION_DOT": 2.509e-5,
    "MEAN_MOTION_DDOT": 0
  },
  {
    "OBJECT_NAME": "STARLINK-30526",
    "OBJECT_ID": "2023-153R",
    "EPOCH": "2023-10-22T14:00:01.000224",
    "MEAN_MOTION": 15.73814257,
    "ECCENTRICITY": 9.15e-5,
    "INCLINATION": 43.0002,
    "RA_OF_ASC_NODE": 127.916,
    "ARG_OF_PERICENTER": 213.4012,
    "MEAN_ANOMALY": 185.1668,
    "EPHEMERIS_TYPE": 0,
    "CLASSIFICATION_TYPE": "U",
    "NORAD_CAT_ID": 58006,
    "ELEMENT_SET_NO": 999,
    "REV_AT_EPOCH": 396,
    "BSTAR": 3.7526e-5,
    "MEAN_MOTION_DOT": 5.001e-5,
    "MEAN_MOTION_DDOT": 0
  },
  {
    "OBJECT_NAME": "STARLINK-30527",
    "OBJECT_ID": "2023-153S",
    "EPOCH": "2023-10-22T14:00:01.000224",
    "MEAN_MOTION": 15.78572005,
    "ECCENTRICITY": 0.000243,
    "INCLINATION": 42.9998,
    "RA_OF_ASC_NODE": 127.8493,
    "ARG_OF_PERICENTER": 288.2587,
    "MEAN_ANOMALY": 137.1223,
    "EPHEMERIS_TYPE": 0,
    "CLASSIFICATION_TYPE": "U",
    "NORAD_CAT_ID": 58007,
    "ELEMENT_SET_NO": 999,
    "REV_AT_EPOCH": 387,
    "BSTAR": 0.0014398,
    "MEAN_MOTION_DOT": 0.002665,
    "MEAN_MOTION_DDOT": 0
  },
  {
    "OBJECT_NAME": "STARLINK-30522",
    "OBJECT_ID": "2023-153T",
    "EPOCH": "2023-10-22T14:00:01.000224",
    "MEAN_MOTION": 15.73805454,
    "ECCENTRICITY": 0.0001328,
    "INCLINATION": 43.0002,
    "RA_OF_ASC_NODE": 127.9111,
    "ARG_OF_PERICENTER": 216.9661,
    "MEAN_ANOMALY": 183.466,
    "EPHEMERIS_TYPE": 0,
    "CLASSIFICATION_TYPE": "U",
    "NORAD_CAT_ID": 58008,
    "ELEMENT_SET_NO": 999,
    "REV_AT_EPOCH": 397,
    "BSTAR": 7.2353e-5,
    "MEAN_MOTION_DOT": 0.00010078,
    "MEAN_MOTION_DDOT": 0
  },
  {
    "OBJECT_NAME": "STARLINK-30486",
    "OBJECT_ID": "2023-153U",
    "EPOCH": "2023-10-22T14:00:01.000224",
    "MEAN_MOTION": 15.73825293,
    "ECCENTRICITY": 7.71e-5,
    "INCLINATION": 43.0002,
    "RA_OF_ASC_NODE": 127.9095,
    "ARG_OF_PERICENTER": 232.2735,
    "MEAN_ANOMALY": 168.7602,
    "EPHEMERIS_TYPE": 0,
    "CLASSIFICATION_TYPE": "U",
    "NORAD_CAT_ID": 58009,
    "ELEMENT_SET_NO": 999,
    "REV_AT_EPOCH": 365,
    "BSTAR": -8.1116e-5,
    "MEAN_MOTION_DOT": -0.0001227,
    "MEAN_MOTION_DDOT": 0
  },
  {
    "OBJECT_NAME": "STARLINK-30520",
    "OBJECT_ID": "2023-153V",
    "EPOCH": "2023-10-22T14:00:01.000224",
    "MEAN_MOTION": 15.73807585,
    "ECCENTRICITY": 8.58e-5,
    "INCLINATION": 43.0001,
    "RA_OF_ASC_NODE": 127.9077,
    "ARG_OF_PERICENTER": 214.4167,
    "MEAN_ANOMALY": 187.2502,
    "EPHEMERIS_TYPE": 0,
    "CLASSIFICATION_TYPE": "U",
    "NORAD_CAT_ID": 58010,
    "ELEMENT_SET_NO": 999,
    "REV_AT_EPOCH": 387,
    "BSTAR": 1.2559e-5,
    "MEAN_MOTION_DOT": 1.361e-5,
    "MEAN_MOTION_DDOT": 0
  },
  {
    "OBJECT_NAME": "STARLINK-30497",
    "OBJECT_ID": "2023-153W",
    "EPOCH": "2023-10-22T14:00:01.000224",
    "MEAN_MOTION": 15.73792851,
    "ECCENTRICITY": 9.04e-5,
    "INCLINATION": 43.0004,
    "RA_OF_ASC_NODE": 127.9066,
    "ARG_OF_PERICENTER": 262.6876,
    "MEAN_ANOMALY": 139.6036,
    "EPHEMERIS_TYPE": 0,
    "CLASSIFICATION_TYPE": "U",
    "NORAD_CAT_ID": 58011,
    "ELEMENT_SET_NO": 999,
    "REV_AT_EPOCH": 397,
    "BSTAR": 0.00018206,
    "MEAN_MOTION_DOT": 0.00026106,
    "MEAN_MOTION_DDOT": 0
  },
  {
    "OBJECT_NAME": "STARLINK-30525",
    "OBJECT_ID": "2023-153X",
    "EPOCH": "2023-10-22T14:00:01.000224",
    "MEAN_MOTION": 15.73825618,
    "ECCENTRICITY": 0.0001026,
    "INCLINATION": 43.0001,
    "RA_OF_ASC_NODE": 127.9043,
    "ARG_OF_PERICENTER": 221.8034,
    "MEAN_ANOMALY": 181.0837,
    "EPHEMERIS_TYPE": 0,
    "CLASSIFICATION_TYPE": "U",
    "NORAD_CAT_ID": 58012,
    "ELEMENT_SET_NO": 999,
    "REV_AT_EPOCH": 397,
    "BSTAR": -0.00011144,
    "MEAN_MOTION_DOT": -0.00016674,
    "MEAN_MOTION_DDOT": 0
  },
  {
    "OBJECT_NAME": "KUIPER-P2",
    "OBJECT_ID": "2023-154A",
    "EPOCH": "2023-10-22T12:24:20.892672",
    "MEAN_MOTION": 15.24815719,
    "ECCENTRICITY": 0.0016211,
    "INCLINATION": 29.9904,
    "RA_OF_ASC_NODE": 353.5497,
    "ARG_OF_PERICENTER": 111.6906,
    "MEAN_ANOMALY": 248.5445,
    "EPHEMERIS_TYPE": 0,
    "CLASSIFICATION_TYPE": "U",
    "NORAD_CAT_ID": 58013,
    "ELEMENT_SET_NO": 999,
    "REV_AT_EPOCH": 240,
    "BSTAR": 0.00039263,
    "MEAN_MOTION_DOT": 0.00010216,
    "MEAN_MOTION_DDOT": 0
  },
  {
    "OBJECT_NAME": "KUIPER-P1",
    "OBJECT_ID": "2023-154B",
    "EPOCH": "2023-10-22T12:28:27.384096",
    "MEAN_MOTION": 15.24592792,
    "ECCENTRICITY": 0.0015152,
    "INCLINATION": 29.99,
    "RA_OF_ASC_NODE": 353.5754,
    "ARG_OF_PERICENTER": 109.278,
    "MEAN_ANOMALY": 250.9483,
    "EPHEMERIS_TYPE": 0,
    "CLASSIFICATION_TYPE": "U",
    "NORAD_CAT_ID": 58014,
    "ELEMENT_SET_NO": 999,
    "REV_AT_EPOCH": 240,
    "BSTAR": 0.00063949,
    "MEAN_MOTION_DOT": 0.00016439,
    "MEAN_MOTION_DDOT": 0
  }
]
