STARLINK-30535          
1 58001U 23153L   23295.58334491 -.00208566  00000+0 -14560-2 0  9992
2 58001  42.9998 127.9219 0001276 257.0091 139.0204 15.73949319  3977
STARLINK-30540          
1 58002U 23153M   23295.58334491 -.00000497  00000+0 -19135-6 0  9993
2 58002  43.0000 127.9189 0001863 246.7635 150.5782 15.73808244  3870
STARLINK-30546          
1 58003U 23153N   23295.58334491  .00019035  00000+0  13363-3 0  9994
2 58003  42.9999 127.9205 0001721 238.9339 157.7729 15.73809770  3978
STARLINK-30539          
1 58004U 23153P   23295.58334491  .00050268  00000+0  34656-3 0  9996
2 58004  43.0000 127.9174 0001303 261.9412 136.0056 15.73795430  3973
STARLINK-30530          
1 58005U 23153Q   23295.58334491  .00002509  00000+0  20437-4 0  9995
2 58005  43.0002 127.9145 0001350 229.2841 169.9022 15.73815186  3978
STARLINK-30526          
1 58006U 23153R   23295.58334491  .00005001  00000+0  37526-4 0  9993
2 58006  43.0002 127.9160 0000915 213.4012 185.1668 15.73814257  3960
STARLINK-30527          
1 58007U 23153S   23295.58334491  .00266500  00000+0  14398-2 0  9997
2 58007  42.9998 127.8493 0002430 288.2587 137.1223 15.78572005  3873
STARLINK-30522          
1 58008U 23153T   23295.58334491  .00010078  00000+0  72353-4 0  9992
2 58008  43.0002 127.9111 0001328 216.9661 183.4660 15.73805454  3978
STARLINK-30486          
1 58009U 23153U   23295.58334491 -.00012270  00000+0 -81116-4 0  9998
2 58009  43.0002 127.9095 0000771 232.2735 168.7602 15.73825293  3654
STARLINK-30520          
1 58010U 23153V   23295.58334491  .00001361  00000+0  12559-4 0  9992
2 58010  43.0001 127.9077 0000858 214.4167 187.2502 15.73807585  3875
STARLINK-30497          
1 58011U 23153W   23295.58334491  .00026106  00000+0  18206-3 0  9991
2 58011  43.0004 127.9066 0000904 262.6876 139.6036 15.73792851  3974
STARLINK-30525          
1 58012U 23153X   23295.58334491 -.00016674  00000+0 -11144-3 0  9997
2 58012  43.0001 127.9043 0001026 221.8034 181.0837 15.73825618  3974
KUIPER-P2               
1 58013U 23154A   23295.51690848  .00010216  00000+0  39263-3 0  9999
2 58013  29.9904 353.5497 0016211 111.6906 248.5445 15.24815719  2404
KUIPER-P1               
1 58014U 23154B   23295.51976139  .00016439  00000+0  63949-3 0  9991
2 58014  29.9900 353.5754 0015152 109.2780 250.9483 15.24592792  2405
